{
  "norad_id": 54679,
  "name": "ONEWEB-0685",
  "history": [
    {
      "epoch": "2026-03-28T20:29:57.933600Z",
      "apogee_km": 1179.0464642531406,
      "perigee_km": 1176.5537605997506,
      "latitude_deg": 5.688123782157436e-05,
      "longitude_deg": 126.23409463934085,
      "height_km": 1180.9731223882795,
      "semi_major_axis_km": 7555.937112426445,
      "eccentricity": 0.00016495,
      "inclination_deg": 87.9168,
      "raan_deg": 259.9941,
      "arg_perigee_deg": 102.557,
      "mean_anomaly_deg": 257.5749,
      "mean_motion_rev_day": 13.21813734
    },
    {
      "epoch": "2026-03-29T00:07:58.374336Z",
      "apogee_km": 1179.0560511124113,
      "perigee_km": 1176.542946632887,
      "latitude_deg": 4.799360818886255e-07,
      "longitude_deg": 71.55273541839671,
      "height_km": 1180.9732052494246,
      "semi_major_axis_km": 7555.936498872648,
      "eccentricity": 0.0001663,
      "inclination_deg": 87.9169,
      "raan_deg": 259.9638,
      "arg_perigee_deg": 102.4866,
      "mean_anomaly_deg": 257.6454,
      "mean_motion_rev_day": 13.21813895
    },
    {
      "epoch": "2026-03-29T23:45:01.342368Z",
      "apogee_km": 1179.0658061096137,
      "perigee_km": 1176.5341138717995,
      "latitude_deg": 8.823409822318261e-05,
      "longitude_deg": 76.12373639881973,
      "height_km": 1180.9830329689933,
      "semi_major_axis_km": 7555.936959990707,
      "eccentricity": 0.00016753,
      "inclination_deg": 87.917,
      "raan_deg": 259.7671,
      "arg_perigee_deg": 102.8292,
      "mean_anomaly_deg": 257.303,
      "mean_motion_rev_day": 13.21813774
    },
    {
      "epoch": "2026-03-30T12:28:02.912160Z",
      "apogee_km": 1179.0766427391136,
      "perigee_km": 1176.5201675541366,
      "latitude_deg": 1.0125656924935028e-05,
      "longitude_deg": -115.260979472567,
      "height_km": 1180.9858513979652,
      "semi_major_axis_km": 7555.935405146625,
      "eccentricity": 0.00016917,
      "inclination_deg": 87.917,
      "raan_deg": 259.6612,
      "arg_perigee_deg": 102.9044,
      "mean_anomaly_deg": 257.2279,
      "mean_motion_rev_day": 13.21814182
    },
    {
      "epoch": "2026-03-30T21:33:04.068864Z",
      "apogee_km": 1179.079588427975,
      "perigee_km": 1176.5178239861425,
      "latitude_deg": 7.75566690467593e-05,
      "longitude_deg": 108.03545136473788,
      "height_km": 1180.988516939476,
      "semi_major_axis_km": 7555.9357062070585,
      "eccentricity": 0.00016952,
      "inclination_deg": 87.917,
      "raan_deg": 259.5855,
      "arg_perigee_deg": 102.9865,
      "mean_anomaly_deg": 257.1459,
      "mean_motion_rev_day": 13.21814103
    },
    {
      "epoch": "2026-03-31T21:10:07.020480Z",
      "apogee_km": 1179.0789626855158,
      "perigee_km": 1176.5144787806976,
      "latitude_deg": 7.105092244521007e-05,
      "longitude_deg": 112.60651837765488,
      "height_km": 1180.9907450065637,
      "semi_major_axis_km": 7555.933720733106,
      "eccentricity": 0.0001697,
      "inclination_deg": 87.917,
      "raan_deg": 259.3888,
      "arg_perigee_deg": 103.1657,
      "mean_anomaly_deg": 256.9667,
      "mean_motion_rev_day": 13.21814624
    },
    {
      "epoch": "2026-04-01T20:47:09.971232Z",
      "apogee_km": 1179.0919716691687,
      "perigee_km": 1176.5017975335268,
      "latitude_deg": -1.416918202307189e-05,
      "longitude_deg": 117.17738602938923,
      "height_km": 1180.9952344449187,
      "semi_major_axis_km": 7555.933884601348,
      "eccentricity": 0.0001714,
      "inclination_deg": 87.9172,
      "raan_deg": 259.1919,
      "arg_perigee_deg": 103.2299,
      "mean_anomaly_deg": 256.9026,
      "mean_motion_rev_day": 13.21814581
    },
    {
      "epoch": "2026-04-02T11:19:11.741952Z",
      "apogee_km": 1179.0967812397766,
      "perigee_km": 1176.4961800544088,
      "latitude_deg": 1.880777046664944e-05,
      "longitude_deg": -101.5476732746113,
      "height_km": 1180.9987679405726,
      "semi_major_axis_km": 7555.933480647092,
      "eccentricity": 0.00017209,
      "inclination_deg": 87.9172,
      "raan_deg": 259.0711,
      "arg_perigee_deg": 103.3548,
      "mean_anomaly_deg": 256.7778,
      "mean_motion_rev_day": 13.21814687
    },
    {
      "epoch": "2026-04-02T22:13:13.088352Z",
      "apogee_km": 1179.102278466953,
      "perigee_km": 1176.489890162381,
      "latitude_deg": 4.199967491444752e-05,
      "longitude_deg": 94.40825542840486,
      "height_km": 1181.002531159224,
      "semi_major_axis_km": 7555.933084314666,
      "eccentricity": 0.00017287,
      "inclination_deg": 87.9173,
      "raan_deg": 258.9803,
      "arg_perigee_deg": 103.4816,
      "mean_anomaly_deg": 256.6511,
      "mean_motion_rev_day": 13.21814791
    },
    {
      "epoch": "2026-04-03T12:45:14.870304Z",
      "apogee_km": 1179.1070835533137,
      "perigee_km": 1176.4841171104335,
      "latitude_deg": -5.311195631812898e-05,
      "longitude_deg": -124.3170559207299,
      "height_km": 1180.9986486398877,
      "semi_major_axis_km": 7555.932600331873,
      "eccentricity": 0.00017357,
      "inclination_deg": 87.9174,
      "raan_deg": 258.8593,
      "arg_perigee_deg": 103.2736,
      "mean_anomaly_deg": 256.8591,
      "mean_motion_rev_day": 13.21814918
    },
    {
      "epoch": "2026-04-03T23:39:16.221024Z",
      "apogee_km": 1179.1137989138524,
      "perigee_km": 1176.4778361911222,
      "latitude_deg": 1.7013477246603183e-05,
      "longitude_deg": 71.63875607976,
      "height_km": 1180.9905113768104,
      "semi_major_axis_km": 7555.932817552487,
      "eccentricity": 0.00017443,
      "inclination_deg": 87.9175,
      "raan_deg": 258.7684,
      "arg_perigee_deg": 102.8356,
      "mean_anomaly_deg": 257.2973,
      "mean_motion_rev_day": 13.21814861
    },
    {
      "epoch": "2026-04-05T11:59:20.740704Z",
      "apogee_km": 1179.1309990878453,
      "perigee_km": 1176.4604302291755,
      "latitude_deg": 7.566546932434569e-05,
      "longitude_deg": -115.17458418368066,
      "height_km": 1180.9983580150215,
      "semi_major_axis_km": 7555.93271465851,
      "eccentricity": 0.00017672,
      "inclination_deg": 87.9178,
      "raan_deg": 258.4661,
      "arg_perigee_deg": 103.0182,
      "mean_anomaly_deg": 257.115,
      "mean_motion_rev_day": 13.21814888
    },
    {
      "epoch": "2026-04-05T21:04:21.792000Z",
      "apogee_km": 1179.1159991461172,
      "perigee_km": 1176.4682504622024,
      "latitude_deg": 4.6307199884854344e-05,
      "longitude_deg": 108.12218243863536,
      "height_km": 1181.0202013906035,
      "semi_major_axis_km": 7555.929124804159,
      "eccentricity": 0.00017521,
      "inclination_deg": 87.9179,
      "raan_deg": 258.3903,
      "arg_perigee_deg": 104.263,
      "mean_anomaly_deg": 255.8699,
      "mean_motion_rev_day": 13.2181583
    },
    {
      "epoch": "2026-04-07T11:13:26.660352Z",
      "apogee_km": 1179.1326950012626,
      "perigee_km": 1176.463787555338,
      "latitude_deg": 3.396140253440653e-05,
      "longitude_deg": -106.03252724425217,
      "height_km": 1181.0399878365624,
      "semi_major_axis_km": 7555.9352412783,
      "eccentricity": 0.00017661,
      "inclination_deg": 87.918,
      "raan_deg": 258.0727,
      "arg_perigee_deg": 104.7543,
      "mean_anomaly_deg": 255.3787,
      "mean_motion_rev_day": 13.21814225
    },
    {
      "epoch": "2026-04-07T20:18:27.695232Z",
      "apogee_km": 1179.1357510537036,
      "perigee_km": 1176.4503735095686,
      "latitude_deg": 1.3431651958859728e-05,
      "longitude_deg": 117.26450785297511,
      "height_km": 1181.0370178756755,
      "semi_major_axis_km": 7555.930062281635,
      "eccentricity": 0.0001777,
      "inclination_deg": 87.918,
      "raan_deg": 257.9971,
      "arg_perigee_deg": 104.7598,
      "mean_anomaly_deg": 255.3733,
      "mean_motion_rev_day": 13.21815584
    },
    {
      "epoch": "2026-04-08T10:50:29.495328Z",
      "apogee_km": 1179.1756158668322,
      "perigee_km": 1176.4130162590527,
      "latitude_deg": -2.9376127795595847e-05,
      "longitude_deg": -101.4605792681416,
      "height_km": 1181.0282538337908,
      "semi_major_axis_km": 7555.931316062942,
      "eccentricity": 0.00018281,
      "inclination_deg": 87.918,
      "raan_deg": 257.8764,
      "arg_perigee_deg": 103.9138,
      "mean_anomaly_deg": 256.2199,
      "mean_motion_rev_day": 13.21815255
    },
    {
      "epoch": "2026-04-09T19:32:33.503424Z",
      "apogee_km": 1179.1855764671536,
      "perigee_km": 1176.403482478002,
      "latitude_deg": 2.309804426468637e-05,
      "longitude_deg": 126.40753116334758,
      "height_km": 1181.029657582886,
      "semi_major_axis_km": 7555.9315294725775,
      "eccentricity": 0.0001841,
      "inclination_deg": 87.9185,
      "raan_deg": 257.6042,
      "arg_perigee_deg": 103.866,
      "mean_anomaly_deg": 256.2679,
      "mean_motion_rev_day": 13.21815199
    },
    {
      "epoch": "2026-04-10T04:37:34.611744Z",
      "apogee_km": 1179.1765925318014,
      "perigee_km": 1176.412481656901,
      "latitude_deg": 8.808497231814832e-06,
      "longitude_deg": -10.295840241680843,
      "height_km": 1181.0147012231255,
      "semi_major_axis_km": 7555.931537094351,
      "eccentricity": 0.00018291,
      "inclination_deg": 87.9183,
      "raan_deg": 257.5285,
      "arg_perigee_deg": 103.3192,
      "mean_anomaly_deg": 256.8146,
      "mean_motion_rev_day": 13.21815197
    },
    {
      "epoch": "2026-04-11T20:35:39.508224Z",
      "apogee_km": 1179.200927340834,
      "perigee_km": 1176.3840768224572,
      "latitude_deg": -3.580264062409453e-05,
      "longitude_deg": 108.20962434904973,
      "height_km": 1181.031075664209,
      "semi_major_axis_km": 7555.929502081645,
      "eccentricity": 0.0001864,
      "inclination_deg": 87.9188,
      "raan_deg": 257.1958,
      "arg_perigee_deg": 103.837,
      "mean_anomaly_deg": 256.2971,
      "mean_motion_rev_day": 13.21815731
    }
  ]
}